start=new Date('2023-06-17T00:00:00.000Z').valueOf();
sats=[{"ECCENTRICITY":"0.00012510","MEAN_ANOMALY":"279.9860","PERIAPSIS":"546.288","MEAN_ELEMENT_THEORY":"SGP4","APOAPSIS":"548.020","LAUNCH_DATE":"2021-04-07","GP_ID":"234092803","REF_FRAME":"TEME","FILE":"3934949","RCS_SIZE":"LARGE","NORAD_CAT_ID":"48111","OBJECT_NAME":"STARLINK-2448","TIME_SYSTEM":"UTC","REV_AT_EPOCH":"12229","ARG_OF_PERICENTER":"80.1270","MEAN_MOTION_DOT":"0.00012582","TLE_LINE2":"2 48111  53.0556 317.2509 0001251  80.1270 279.9860 15.06419434122299","CLASSIFICATION_TYPE":"U","COUNTRY_CODE":"US","OBJECT_ID":"2021-027V","RA_OF_ASC_NODE":"317.2509","MEAN_MOTION_DDOT":"0.0000000000000","SITE":"AFETR","CENTER_NAME":"EARTH","ELEMENT_SET_NO":"999","SEMIMAJOR_AXIS":"6925.289","TLE_LINE1":"1 48111U 21027V   23167.69937967  .00012582  00000-0  86163-3 0  9997","DECAY_DATE":null,"MEAN_MOTION":"15.06419434","EPOCH":"2023-06-16T16:47:06.403488","EPHEMERIS_TYPE":"0","PERIOD":"95.591","BSTAR":"0.00086163000000","INCLINATION":"53.0556","OBJECT_TYPE":"PAYLOAD"},{"DECAY_DATE":null,"SEMIMAJOR_AXIS":"6925.313","TLE_LINE1":"1 48112U 21027W   23167.82518502  .00006657  00000-0  46522-3 0  9994","MEAN_MOTION_DDOT":"0.0000000000000","SITE":"AFETR","ELEMENT_SET_NO":"999","CENTER_NAME":"EARTH","INCLINATION":"53.0551","OBJECT_TYPE":"PAYLOAD","PERIOD":"95.591","BSTAR":"0.00046522000000","EPHEMERIS_TYPE":"0","EPOCH":"2023-06-16T19:48:15.985728","MEAN_MOTION":"15.06411753","COUNTRY_CODE":"US","CLASSIFICATION_TYPE":"U","RA_OF_ASC_NODE":"331.8782","OBJECT_ID":"2021-027W","REV_AT_EPOCH":"12209","ARG_OF_PERICENTER":"89.6422","OBJECT_NAME":"STARLINK-2449","TIME_SYSTEM":"UTC","TLE_LINE2":"2 48112  53.0551 331.8782 0001158  89.6422 270.4699 15.06411753122099","MEAN_MOTION_DOT":"0.00006657","LAUNCH_DATE":"2021-04-07","APOAPSIS":"547.979","ECCENTRICITY":"0.00011580","MEAN_ANOMALY":"270.4699","PERIAPSIS":"546.376","MEAN_ELEMENT_THEORY":"SGP4","RCS_SIZE":"LARGE","FILE":"3934949","NORAD_CAT_ID":"48112","REF_FRAME":"TEME","GP_ID":"234093053"},{"CLASSIFICATION_TYPE":"U","COUNTRY_CODE":"US","OBJECT_ID":"2021-027X","RA_OF_ASC_NODE":"326.7042","ELEMENT_SET_NO":"999","CENTER_NAME":"EARTH","SITE":"AFETR","MEAN_MOTION_DDOT":"0.0000000000000","TLE_LINE1":"1 48113U 21027X   23167.82746302  .00008692  00000-0  60155-3 0  9995","SEMIMAJOR_AXIS":"6925.319","DECAY_DATE":null,"MEAN_MOTION":"15.06409615","EPOCH":"2023-06-16T19:51:32.804928","EPHEMERIS_TYPE":"0","BSTAR":"0.00060155000000","PERIOD":"95.592","OBJECT_TYPE":"PAYLOAD","INCLINATION":"53.0553","PERIAPSIS":"546.483","MEAN_ANOMALY":"282.0566","MEAN_ELEMENT_THEORY":"SGP4","ECCENTRICITY":"0.00010130","APOAPSIS":"547.886","LAUNCH_DATE":"2021-04-07","REF_FRAME":"TEME","GP_ID":"234094301","FILE":"3934949","RCS_SIZE":"LARGE","NORAD_CAT_ID":"48113","TIME_SYSTEM":"UTC","OBJECT_NAME":"STARLINK-2450","ARG_OF_PERICENTER":"78.0537","REV_AT_EPOCH":"12215","MEAN_MOTION_DOT":"0.00008692","TLE_LINE2":"2 48113  53.0553 326.7042 0001013  78.0537 282.0566 15.06409615122156"},{"RA_OF_ASC_NODE":"321.8858","OBJECT_ID":"2021-027Y","COUNTRY_CODE":"US","CLASSIFICATION_TYPE":"U","OBJECT_TYPE":"PAYLOAD","INCLINATION":"53.0546","BSTAR":"0.00132930000000","PERIOD":"95.592","EPHEMERIS_TYPE":"0","EPOCH":"2023-06-16T18:55:07.726368","MEAN_MOTION":"15.06407976","DECAY_DATE":null,"TLE_LINE1":"1 48114U 21027Y   23167.78828387  .00019578  00000-0  13293-2 0  9990","SEMIMAJOR_AXIS":"6925.324","ELEMENT_SET_NO":"999","CENTER_NAME":"EARTH","MEAN_MOTION_DDOT":"0.0000000000000","SITE":"AFETR","RCS_SIZE":"LARGE","FILE":"3934949","NORAD_CAT_ID":"48114","REF_FRAME":"TEME","GP_ID":"234094541","LAUNCH_DATE":"2021-04-07","APOAPSIS":"548.029","MEAN_ANOMALY":"277.2560","PERIAPSIS":"546.349","MEAN_ELEMENT_THEORY":"SGP4","ECCENTRICITY":"0.00012130","TLE_LINE2":"2 48114  53.0546 321.8858 0001213  82.8566 277.2560 15.06407976122234","MEAN_MOTION_DOT":"0.00019578","ARG_OF_PERICENTER":"82.8566","REV_AT_EPOCH":"12223","TIME_SYSTEM":"UTC","OBJECT_NAME":"STARLINK-2451"},{"APOAPSIS":"547.915","LAUNCH_DATE":"2021-04-07","PERIAPSIS":"546.483","MEAN_ELEMENT_THEORY":"SGP4","MEAN_ANOMALY":"267.2148","ECCENTRICITY":"0.00010340","FILE":"3934949","RCS_SIZE":"LARGE","NORAD_CAT_ID":"48115","REF_FRAME":"TEME","GP_ID":"234093303","TIME_SYSTEM":"UTC","OBJECT_NAME":"STARLINK-2452","ARG_OF_PERICENTER":"92.8959","REV_AT_EPOCH":"12228","TLE_LINE2":"2 48115  53.0543 317.3528 0001034  92.8959 267.2148 15.06404857122285","MEAN_MOTION_DOT":"0.00003374","CLASSIFICATION_TYPE":"U","COUNTRY_CODE":"US","RA_OF_ASC_NODE":"317.3528","OBJECT_ID":"2021-027Z","DECAY_DATE":null,"CENTER_NAME":"EARTH","ELEMENT_SET_NO":"999","MEAN_MOTION_DDOT":"0.0000000000000","SITE":"AFETR","TLE_LINE1":"1 48115U 21027Z   23167.68369736  .00003374  00000-0  24524-3 0  9995","SEMIMAJOR_AXIS":"6925.334","BSTAR":"0.00024524000000","PERIOD":"95.592","OBJECT_TYPE":"PAYLOAD","INCLINATION":"53.0543","MEAN_MOTION":"15.06404857","EPHEMERIS_TYPE":"0","EPOCH":"2023-06-16T16:24:31.451904"},{"COUNTRY_CODE":"US","CLASSIFICATION_TYPE":"U","RA_OF_ASC_NODE":"326.7226","OBJECT_ID":"2021-027AA","DECAY_DATE":null,"TLE_LINE1":"1 48116U 21027AA  23167.82377674  .00012500  00000-0  85626-3 0  9993","SEMIMAJOR_AXIS":"6925.312","MEAN_MOTION_DDOT":"0.0000000000000","SITE":"AFETR","ELEMENT_SET_NO":"999","CENTER_NAME":"EARTH","INCLINATION":"53.0537","OBJECT_TYPE":"PAYLOAD","PERIOD":"95.591","BSTAR":"0.00085626000000","EPHEMERIS_TYPE":"0","EPOCH":"2023-06-16T19:46:14.310336","MEAN_MOTION":"15.06411898","LAUNCH_DATE":"2021-04-07","APOAPSIS":"547.671","ECCENTRICITY":"0.00007130","MEAN_ANOMALY":"289.7147","PERIAPSIS":"546.683","MEAN_ELEMENT_THEORY":"SGP4","NORAD_CAT_ID":"48116","FILE":"3934949","RCS_SIZE":"LARGE","REF_FRAME":"TEME","GP_ID":"234093553","REV_AT_EPOCH":"12216","ARG_OF_PERICENTER":"70.3919","OBJECT_NAME":"STARLINK-2454","TIME_SYSTEM":"UTC","TLE_LINE2":"2 48116  53.0537 326.7226 0000713  70.3919 289.7147 15.06411898122166","MEAN_MOTION_DOT":"0.00012500"},{"ECCENTRICITY":"0.00013140","PERIAPSIS":"546.276","MEAN_ELEMENT_THEORY":"SGP4","MEAN_ANOMALY":"271.4760","APOAPSIS":"548.096","LAUNCH_DATE":"2021-04-07","GP_ID":"234093802","REF_FRAME":"TEME","RCS_SIZE":"LARGE","FILE":"3934949","NORAD_CAT_ID":"48117","OBJECT_NAME":"STARLINK-2455","TIME_SYSTEM":"UTC","REV_AT_EPOCH":"12244","ARG_OF_PERICENTER":"88.6379","MEAN_MOTION_DOT":"0.00007325","TLE_LINE2":"2 48117  53.0536 306.8375 0001314  88.6379 271.4760 15.06408991122440","CLASSIFICATION_TYPE":"U","COUNTRY_CODE":"US","OBJECT_ID":"2021-027AB","RA_OF_ASC_NODE":"306.8375","MEAN_MOTION_DDOT":"0.0000000000000","SITE":"AFETR","ELEMENT_SET_NO":"999","CENTER_NAME":"EARTH","TLE_LINE1":"1 48117U 21027AB  23167.79519260  .00007325  00000-0  50999-3 0  9993","SEMIMAJOR_AXIS":"6925.321","DECAY_DATE":null,"MEAN_MOTION":"15.06408991","EPOCH":"2023-06-16T19:05:04.640640","EPHEMERIS_TYPE":"0","PERIOD":"95.592","BSTAR":"0.00050999000000","INCLINATION":"53.0536","OBJECT_TYPE":"PAYLOAD"},{"LAUNCH_DATE":"2021-04-07","APOAPSIS":"547.874","MEAN_ELEMENT_THEORY":"SGP4","PERIAPSIS":"546.444","MEAN_ANOMALY":"289.2660","ECCENTRICITY":"0.00010320","FILE":"3934949","RCS_SIZE":"LARGE","NORAD_CAT_ID":"48118","REF_FRAME":"TEME","GP_ID":"234094042","ARG_OF_PERICENTER":"70.8441","REV_AT_EPOCH":"12244","TIME_SYSTEM":"UTC","OBJECT_NAME":"STARLINK-2458","TLE_LINE2":"2 48118  53.0556 306.7964 0001032  70.8441 289.2660 15.06417779122446","MEAN_MOTION_DOT":"0.00015963","COUNTRY_CODE":"US","CLASSIFICATION_TYPE":"U","RA_OF_ASC_NODE":"306.7964","OBJECT_ID":"2021-027AC","DECAY_DATE":null,"TLE_LINE1":"1 48118U 21027AC  23167.80719208  .00015963  00000-0  10876-2 0  9996","SEMIMAJOR_AXIS":"6925.294","ELEMENT_SET_NO":"999","CENTER_NAME":"EARTH","SITE":"AFETR","MEAN_MOTION_DDOT":"0.0000000000000","OBJECT_TYPE":"PAYLOAD","INCLINATION":"53.0556","BSTAR":"0.00108760000000","PERIOD":"95.591","EPOCH":"2023-06-16T19:22:21.395712","EPHEMERIS_TYPE":"0","MEAN_MOTION":"15.06417779"},{"APOAPSIS":"547.953","LAUNCH_DATE":"2021-04-07","MEAN_ANOMALY":"279.6132","PERIAPSIS":"546.374","MEAN_ELEMENT_THEORY":"SGP4","ECCENTRICITY":"0.00011400","RCS_SIZE":"LARGE","FILE":"3934949","NORAD_CAT_ID":"48119","REF_FRAME":"TEME","GP_ID":"234092804","TIME_SYSTEM":"UTC","OBJECT_NAME":"STARLINK-2459","ARG_OF_PERICENTER":"80.4986","REV_AT_EPOCH":"12242","TLE_LINE2":"2 48119  53.0549 307.1036 0001140  80.4986 279.6132 15.06416423122425","MEAN_MOTION_DOT":"0.00011021","CLASSIFICATION_TYPE":"U","COUNTRY_CODE":"US","RA_OF_ASC_NODE":"307.1036","OBJECT_ID":"2021-027AD","DECAY_DATE":null,"ELEMENT_SET_NO":"999","CENTER_NAME":"EARTH","MEAN_MOTION_DDOT":"0.0000000000000","SITE":"AFETR","SEMIMAJOR_AXIS":"6925.298","TLE_LINE1":"1 48119U 21027AD  23167.73621565  .00011021  00000-0  75728-3 0  9996","BSTAR":"0.00075728000000","PERIOD":"95.591","OBJECT_TYPE":"PAYLOAD","INCLINATION":"53.0549","MEAN_MOTION":"15.06416423","EPHEMERIS_TYPE":"0","EPOCH":"2023-06-16T17:40:09.032160"},{"OBJECT_ID":"2021-027AE","RA_OF_ASC_NODE":"326.7885","CLASSIFICATION_TYPE":"U","COUNTRY_CODE":"US","MEAN_MOTION":"15.06408479","EPOCH":"2023-06-16T19:25:00.962688","EPHEMERIS_TYPE":"0","PERIOD":"95.592","BSTAR":"0.00054779000000","INCLINATION":"53.0561","OBJECT_TYPE":"PAYLOAD","SITE":"AFETR","MEAN_MOTION_DDOT":"0.0000000000000","ELEMENT_SET_NO":"999","CENTER_NAME":"EARTH","SEMIMAJOR_AXIS":"6925.323","TLE_LINE1":"1 48120U 21027AE  23167.80903892  .00007889  00000-0  54779-3 0  9992","DECAY_DATE":null,"REF_FRAME":"TEME","GP_ID":"234093054","RCS_SIZE":"LARGE","FILE":"3934949","NORAD_CAT_ID":"48120","ECCENTRICITY":"0.00009890","PERIAPSIS":"546.503","MEAN_ANOMALY":"274.5112","MEAN_ELEMENT_THEORY":"SGP4","APOAPSIS":"547.872","LAUNCH_DATE":"2021-04-07","MEAN_MOTION_DOT":"0.00007889","TLE_LINE2":"2 48120  53.0561 326.7885 0000989  85.5990 274.5112 15.06408479122177","OBJECT_NAME":"STARLINK-2460","TIME_SYSTEM":"UTC","REV_AT_EPOCH":"12217","ARG_OF_PERICENTER":"85.5990"}];
